start=new Date('2022-03-19T00:00:00.000Z').valueOf();
sats=[{"PERIOD":"96.106","MEAN_MOTION":"14.98352998","INCLINATION":"70.0041","PERIAPSIS":"569.692","OBJECT_ID":"2021-082Q","TLE_LINE2":"2 49144  70.0041 354.8899 0003302 283.2687 309.3450 14.98352998  3584","OBJECT_TYPE":"PAYLOAD","FILE":"3364757","GP_ID":"199105822","REV_AT_EPOCH":"358","MEAN_ELEMENT_THEORY":"SGP4","SEMIMAJOR_AXIS":"6950.122","ARG_OF_PERICENTER":"283.2687","RA_OF_ASC_NODE":"354.8899","CLASSIFICATION_TYPE":"U","OBJECT_NAME":"STARLINK-3100","COUNTRY_CODE":"US","BSTAR":"-0.00317600000000","SITE":"AFWTR","RCS_SIZE":"LARGE","NORAD_CAT_ID":"49144","ELEMENT_SET_NO":"999","DECAY_DATE":null,"MEAN_MOTION_DDOT":"0.0000000000000","MEAN_ANOMALY":"309.3450","TLE_LINE1":"1 49144U 21082Q   22077.91667824 -.00037808  00000-0 -31760-2 0  9993","MEAN_MOTION_DOT":"-0.00037808","CENTER_NAME":"EARTH","APOAPSIS":"574.282","REF_FRAME":"TEME","TIME_SYSTEM":"UTC","LAUNCH_DATE":"2021-09-14","ECCENTRICITY":"0.00033020","EPOCH":"2022-03-18T22:00:00.999936","EPHEMERIS_TYPE":"0"},{"ELEMENT_SET_NO":"999","NORAD_CAT_ID":"49145","RCS_SIZE":"LARGE","BSTAR":"0.00016908000000","SITE":"AFWTR","ARG_OF_PERICENTER":"253.1762","RA_OF_ASC_NODE":"324.6152","CLASSIFICATION_TYPE":"U","OBJECT_NAME":"STARLINK-3119","COUNTRY_CODE":"US","SEMIMAJOR_AXIS":"6737.793","OBJECT_TYPE":"PAYLOAD","FILE":"3364757","GP_ID":"199105083","MEAN_ELEMENT_THEORY":"SGP4","REV_AT_EPOCH":"369","MEAN_MOTION":"15.69734630","PERIAPSIS":"356.968","OBJECT_ID":"2021-082R","INCLINATION":"69.9996","TLE_LINE2":"2 49145  69.9996 324.6152 0003993 253.1762 332.3551 15.69734630  3690","PERIOD":"91.735","LAUNCH_DATE":"2021-09-14","EPOCH":"2022-03-18T22:00:00.999936","ECCENTRICITY":"0.00039930","EPHEMERIS_TYPE":"0","APOAPSIS":"362.349","REF_FRAME":"TEME","TIME_SYSTEM":"UTC","CENTER_NAME":"EARTH","MEAN_MOTION_DOT":"0.00020010","MEAN_MOTION_DDOT":"0.0000000000000","MEAN_ANOMALY":"332.3551","TLE_LINE1":"1 49145U 21082R   22077.91667824  .00020010  00000-0  16908-3 0  9997","DECAY_DATE":null},{"DECAY_DATE":null,"TLE_LINE1":"1 49146U 21082S   22077.91667824 -.00023928  00000-0 -20883-2 0  9997","MEAN_ANOMALY":"339.9331","MEAN_MOTION_DDOT":"0.0000000000000","MEAN_MOTION_DOT":"-0.00023928","CENTER_NAME":"EARTH","TIME_SYSTEM":"UTC","APOAPSIS":"579.279","REF_FRAME":"TEME","ECCENTRICITY":"0.00033080","EPOCH":"2022-03-18T22:00:00.999936","EPHEMERIS_TYPE":"0","LAUNCH_DATE":"2021-09-14","PERIOD":"96.209","PERIAPSIS":"574.678","INCLINATION":"69.9999","OBJECT_ID":"2021-082S","TLE_LINE2":"2 49146  69.9999 333.8849 0003308 281.3465 339.9331 14.96740247  3613","MEAN_MOTION":"14.96740247","MEAN_ELEMENT_THEORY":"SGP4","REV_AT_EPOCH":"361","OBJECT_TYPE":"PAYLOAD","FILE":"3364757","GP_ID":"199105333","SEMIMAJOR_AXIS":"6955.113","COUNTRY_CODE":"US","ARG_OF_PERICENTER":"281.3465","CLASSIFICATION_TYPE":"U","RA_OF_ASC_NODE":"333.8849","OBJECT_NAME":"STARLINK-3116","SITE":"AFWTR","BSTAR":"-0.00208830000000","RCS_SIZE":"LARGE","NORAD_CAT_ID":"49146","ELEMENT_SET_NO":"999"},{"MEAN_MOTION":"15.69728969","PERIAPSIS":"357.179","INCLINATION":"69.9996","OBJECT_ID":"2021-082T","TLE_LINE2":"2 49147  69.9996 324.6230 0003704 256.4109 322.7495 15.69728969  3766","PERIOD":"91.736","SEMIMAJOR_AXIS":"6737.809","OBJECT_TYPE":"PAYLOAD","FILE":"3364757","GP_ID":"199105584","REV_AT_EPOCH":"376","MEAN_ELEMENT_THEORY":"SGP4","BSTAR":"0.00010237000000","SITE":"AFWTR","ARG_OF_PERICENTER":"256.4109","OBJECT_NAME":"STARLINK-3071","CLASSIFICATION_TYPE":"U","RA_OF_ASC_NODE":"324.6230","COUNTRY_CODE":"US","ELEMENT_SET_NO":"999","NORAD_CAT_ID":"49147","RCS_SIZE":"LARGE","DECAY_DATE":null,"MEAN_MOTION_DDOT":"0.0000000000000","TLE_LINE1":"1 49147U 21082T   22077.91667824  .00012016  00000-0  10237-3 0  9995","MEAN_ANOMALY":"322.7495","CENTER_NAME":"EARTH","MEAN_MOTION_DOT":"0.00012016","LAUNCH_DATE":"2021-09-14","ECCENTRICITY":"0.00037040","EPOCH":"2022-03-18T22:00:00.999936","EPHEMERIS_TYPE":"0","APOAPSIS":"362.170","REF_FRAME":"TEME","TIME_SYSTEM":"UTC"},{"SEMIMAJOR_AXIS":"6955.153","OBJECT_TYPE":"PAYLOAD","GP_ID":"199106322","FILE":"3364757","REV_AT_EPOCH":"367","MEAN_ELEMENT_THEORY":"SGP4","MEAN_MOTION":"14.96727398","PERIAPSIS":"574.647","INCLINATION":"69.9985","OBJECT_ID":"2021-082U","TLE_LINE2":"2 49148  69.9985 333.8825 0003409 281.7053   5.7506 14.96727398  3673","PERIOD":"96.210","NORAD_CAT_ID":"49148","ELEMENT_SET_NO":"999","RCS_SIZE":"LARGE","BSTAR":"-0.00206460000000","SITE":"AFWTR","ARG_OF_PERICENTER":"281.7053","OBJECT_NAME":"STARLINK-3048","CLASSIFICATION_TYPE":"U","RA_OF_ASC_NODE":"333.8825","COUNTRY_CODE":"US","MEAN_MOTION_DDOT":"0.0000000000000","MEAN_ANOMALY":"5.7506","TLE_LINE1":"1 49148U 21082U   22077.91667824 -.00023651  00000-0 -20646-2 0  9999","DECAY_DATE":null,"LAUNCH_DATE":"2021-09-14","EPOCH":"2022-03-18T22:00:00.999936","ECCENTRICITY":"0.00034090","EPHEMERIS_TYPE":"0","REF_FRAME":"TEME","APOAPSIS":"579.389","TIME_SYSTEM":"UTC","CENTER_NAME":"EARTH","MEAN_MOTION_DOT":"-0.00023651"},{"MEAN_MOTION_DDOT":"0.0000000000000","MEAN_ANOMALY":"331.5786","TLE_LINE1":"1 49149U 21082V   22077.91667824 -.00075247  00000-0 -63566-2 0  9996","DECAY_DATE":null,"REF_FRAME":"TEME","APOAPSIS":"574.269","TIME_SYSTEM":"UTC","LAUNCH_DATE":"2021-09-14","EPHEMERIS_TYPE":"0","EPOCH":"2022-03-18T22:00:00.999936","ECCENTRICITY":"0.00034410","MEAN_MOTION_DOT":"-0.00075247","CENTER_NAME":"EARTH","GP_ID":"199104584","FILE":"3364757","OBJECT_TYPE":"PAYLOAD","MEAN_ELEMENT_THEORY":"SGP4","REV_AT_EPOCH":"364","SEMIMAJOR_AXIS":"6950.013","PERIOD":"96.103","MEAN_MOTION":"14.98388199","TLE_LINE2":"2 49149  70.0029 354.8827 0003441 286.7167 331.5786 14.98388199  3649","PERIAPSIS":"569.486","OBJECT_ID":"2021-082V","INCLINATION":"70.0029","RCS_SIZE":"LARGE","NORAD_CAT_ID":"49149","ELEMENT_SET_NO":"999","RA_OF_ASC_NODE":"354.8827","CLASSIFICATION_TYPE":"U","OBJECT_NAME":"STARLINK-3053","ARG_OF_PERICENTER":"286.7167","COUNTRY_CODE":"US","BSTAR":"-0.00635660000000","SITE":"AFWTR"},{"ARG_OF_PERICENTER":"288.9047","CLASSIFICATION_TYPE":"U","RA_OF_ASC_NODE":"354.8795","OBJECT_NAME":"STARLINK-3104","COUNTRY_CODE":"US","BSTAR":"-0.00328030000000","SITE":"AFWTR","RCS_SIZE":"LARGE","ELEMENT_SET_NO":"999","NORAD_CAT_ID":"49150","PERIOD":"96.105","MEAN_MOTION":"14.98362461","PERIAPSIS":"569.581","OBJECT_ID":"2021-082W","INCLINATION":"70.0023","TLE_LINE2":"2 49150  70.0023 354.8795 0003420 288.9047 355.0012 14.98362461  3587","OBJECT_TYPE":"PAYLOAD","GP_ID":"199104834","FILE":"3364757","MEAN_ELEMENT_THEORY":"SGP4","REV_AT_EPOCH":"358","SEMIMAJOR_AXIS":"6950.093","MEAN_MOTION_DOT":"-0.00039050","CENTER_NAME":"EARTH","REF_FRAME":"TEME","APOAPSIS":"574.334","TIME_SYSTEM":"UTC","LAUNCH_DATE":"2021-09-14","ECCENTRICITY":"0.00034200","EPOCH":"2022-03-18T22:00:00.999936","EPHEMERIS_TYPE":"0","DECAY_DATE":null,"MEAN_MOTION_DDOT":"0.0000000000000","TLE_LINE1":"1 49150U 21082W   22077.91667824 -.00039050  00000-0 -32803-2 0  9990","MEAN_ANOMALY":"355.0012"},{"MEAN_MOTION":"15.69781954","PERIAPSIS":"357.113","INCLINATION":"69.9999","OBJECT_ID":"2021-082X","TLE_LINE2":"2 49151  69.9999 324.6021 0003576 255.5756 336.3379 15.69781954  3694","PERIOD":"91.732","SEMIMAJOR_AXIS":"6737.658","OBJECT_TYPE":"PAYLOAD","FILE":"3364757","GP_ID":"199106084","MEAN_ELEMENT_THEORY":"SGP4","REV_AT_EPOCH":"369","BSTAR":"-0.00070390000000","SITE":"AFWTR","ARG_OF_PERICENTER":"255.5756","OBJECT_NAME":"STARLINK-3102","CLASSIFICATION_TYPE":"U","RA_OF_ASC_NODE":"324.6021","COUNTRY_CODE":"US","ELEMENT_SET_NO":"999","NORAD_CAT_ID":"49151","RCS_SIZE":"LARGE","DECAY_DATE":null,"MEAN_MOTION_DDOT":"0.0000000000000","MEAN_ANOMALY":"336.3379","TLE_LINE1":"1 49151U 21082X   22077.91667824 -.00083527  00000-0 -70390-3 0  9993","CENTER_NAME":"EARTH","MEAN_MOTION_DOT":"-0.00083527","LAUNCH_DATE":"2021-09-14","ECCENTRICITY":"0.00035760","EPOCH":"2022-03-18T22:00:00.999936","EPHEMERIS_TYPE":"0","APOAPSIS":"361.932","REF_FRAME":"TEME","TIME_SYSTEM":"UTC"},{"TIME_SYSTEM":"UTC","REF_FRAME":"TEME","APOAPSIS":"361.959","ECCENTRICITY":"0.00036180","EPOCH":"2022-03-18T22:00:00.999936","EPHEMERIS_TYPE":"0","LAUNCH_DATE":"2021-09-14","MEAN_MOTION_DOT":"-0.00087386","CENTER_NAME":"EARTH","TLE_LINE1":"1 49152U 21082Y   22077.91667824 -.00087386  00000-0 -73681-3 0  9997","MEAN_ANOMALY":"345.9955","MEAN_MOTION_DDOT":"0.0000000000000","DECAY_DATE":null,"RCS_SIZE":"LARGE","ELEMENT_SET_NO":"999","NORAD_CAT_ID":"49152","COUNTRY_CODE":"US","ARG_OF_PERICENTER":"254.4111","CLASSIFICATION_TYPE":"U","RA_OF_ASC_NODE":"324.5938","OBJECT_NAME":"STARLINK-3081","SITE":"AFWTR","BSTAR":"-0.00073681000000","REV_AT_EPOCH":"3038","MEAN_ELEMENT_THEORY":"SGP4","OBJECT_TYPE":"PAYLOAD","GP_ID":"199074389","FILE":"3364430","SEMIMAJOR_AXIS":"6737.656","PERIOD":"91.732","PERIAPSIS":"357.083","INCLINATION":"70.0009","OBJECT_ID":"2021-082Y","TLE_LINE2":"2 49152  70.0009 324.5938 0003618 254.4111 345.9955 15.69782588 30382","MEAN_MOTION":"15.69782588"},{"EPHEMERIS_TYPE":"0","ECCENTRICITY":"0.00037030","EPOCH":"2022-03-18T22:00:00.999936","LAUNCH_DATE":"2021-09-14","TIME_SYSTEM":"UTC","APOAPSIS":"362.143","REF_FRAME":"TEME","CENTER_NAME":"EARTH","MEAN_MOTION_DOT":"0.00023986","MEAN_ANOMALY":"342.4458","TLE_LINE1":"1 49153U 21082Z   22077.91667824  .00023986  00000-0  20221-3 0  9994","MEAN_MOTION_DDOT":"0.0000000000000","DECAY_DATE":null,"ELEMENT_SET_NO":"999","NORAD_CAT_ID":"49153","RCS_SIZE":"LARGE","SITE":"AFWTR","BSTAR":"0.00020221000000","COUNTRY_CODE":"US","OBJECT_NAME":"STARLINK-3072","CLASSIFICATION_TYPE":"U","RA_OF_ASC_NODE":"324.5967","ARG_OF_PERICENTER":"253.7362","SEMIMAJOR_AXIS":"6737.783","MEAN_ELEMENT_THEORY":"SGP4","REV_AT_EPOCH":"376","GP_ID":"199105084","FILE":"3364757","OBJECT_TYPE":"PAYLOAD","TLE_LINE2":"2 49153  70.0013 324.5967 0003703 253.7362 342.4458 15.69738316  3767","PERIAPSIS":"357.153","INCLINATION":"70.0013","OBJECT_ID":"2021-082Z","MEAN_MOTION":"15.69738316","PERIOD":"91.735"}];
